SAR-LUPE 2              
1 31797U 07030A   26204.82461638  .00021438  00000+0  31946-3 0  9992
2 31797  98.1058 313.9546 0005880 221.5673 138.5133 15.55121533 62629
SAPPHIRE                
1 39088U 13009C   26204.83181851  .00000099  00000+0  49555-4 0  9999
2 39088  98.4281  23.4211 0012054 135.6916 224.5237 14.35249392701834
PRAETORIAN SDA_602      
1 65565U 25203A   26204.82200272  .00000090  00000+0  70061-4 0  9992
2 65565  81.3053 336.8517 0007158  97.9825 262.2144 13.83889059 43768
PRAETORIAN SDA_603      
1 65566U 25203B   26204.34376022  .00000120  00000+0  97347-4 0  9997
2 65566  81.3059 337.2154 0010790  94.8526 265.3862 13.83962424 43700
PRAETORIAN SDA_604      
1 65567U 25203C   26204.38669123  .00000107  00000+0  87356-4 0  9993
2 65567  81.3075 337.6446 0006676 103.1117 257.0784 13.83051396 43680
PRAETORIAN SDA_605      
1 65568U 25203D   26204.77950419  .00000103  00000+0  82721-4 0  9995
2 65568  81.3040 336.9172 0009352  92.9259 267.2967 13.83201456 43755
PRAETORIAN SDA_606      
1 65569U 25203E   26204.76468076  .00000072  00000+0  55015-4 0  9999
2 65569  81.3077 337.1724 0007251  96.5880 263.6101 13.83200789 43745
PRAETORIAN SDA_607      
1 65570U 25203F   26204.31774528  .00000134  00000+0  11013-3 0  9992
2 65570  81.3062 337.1972 0010055  95.1072 265.1232 13.83759288 43701
PRAETORIAN SDA_608      
1 65571U 25203G   26204.37221372  .00000106  00000+0  84740-4 0  9990
2 65571  81.3028 337.3068 0007158 101.4808 258.7153 13.83820703 43699
PRAETORIAN SDA_609      
1 65572U 25203H   26204.80057498  .00000116  00000+0  93486-4 0  9993
2 65572  81.3071 336.8868 0008029  95.3154 264.8918 13.84212465 43769
PRAETORIAN SDA_610      
1 65573U 25203J   26204.35583116  .00000099  00000+0  79416-4 0  9992
2 65573  81.3032 337.2889 0007879 100.8739 259.3304 13.83529456 43698
PRAETORIAN SDA_611      
1 65574U 25203K   26204.80000384  .00000095  00000+0  75276-4 0  9990
2 65574  81.3028 337.0633 0006823 104.3083 255.8832 13.83311590 43749
PRAETORIAN SDA_612      
1 65575U 25203L   26204.81616634  .00000141  00000+0  11412-3 0  9996
2 65575  81.3050 336.5450 0010407  94.0050 266.2297 13.85042337 43785
PRAETORIAN SDA_613      
1 65576U 25203M   26204.82112906  .00000090  00000+0  71845-4 0  9991
2 65576  81.3022 337.0693 0006836  95.5814 264.6121 13.82768817 43744
PRAETORIAN SDA_614      
1 65577U 25203N   26204.81226635  .00000069  00000+0  50339-4 0  9997
2 65577  81.3036 336.6354 0008276  93.1332 267.0772 13.84779375 43784
PRAETORIAN SDA_615      
1 65578U 25203P   26204.79816153  .00000131  00000+0  10592-3 0  9991
2 65578  81.3047 336.6351 0010195  93.1371 267.0952 13.84439261 43776
PRAETORIAN SDA_616      
1 65579U 25203Q   26204.80030558  .00000127  00000+0  10457-3 0  9996
2 65579  81.3084 337.2325 0006705 102.7235 257.4671 13.83271050 43741
PRAETORIAN SDA_617      
1 65580U 25203R   26204.82503184  .00000056  00000+0  39834-4 0  9992
2 65580  81.3060 337.0377 0008544  93.3727 266.8406 13.83152886 43752
PRAETORIAN SDA_618      
1 65581U 25203S   26204.33313816  .00000134  00000+0  10974-3 0  9990
2 65581  81.3043 337.0008 0010952  97.1040 263.1363 13.84226547 43716
PRAETORIAN SDA_619      
1 65582U 25203T   26204.59992429  .00000140  00000+0  11520-3 0  9997
2 65582  81.3066 337.0898 0009347  94.4135 265.8090 13.83806939 44366
PRAETORIAN SDA_620      
1 65583U 25203U   26204.34931514  .00000176  00000+0  14985-3 0  9996
2 65583  81.3051 337.3598 0008660  92.5802 267.6346 13.83208757 43691
PRAETORIAN SDA_621      
1 65584U 25203V   26204.81868410  .00000085  00000+0  66236-4 0  9999
2 65584  81.3043 336.8172 0008508  88.7122 271.5009 13.83804942 43764
PRAETORIAN SDA_601      
1 65585U 25203W   26204.80608573 -.00000056  00000+0 -61601-4 0  9992
2 65585  81.3058 337.1671 0006761 105.2939 254.8964 13.83171192 43745
VICTUS HAZE PUMA        
1 69646U 26142A   26204.27102410  .00004214  00000+0  19059-3 0  9994
2 69646  97.4452 101.4820 0026594 237.1743 122.6931 15.21162456  5151
